OBJECT_NAME,OBJECT_ID,EPOCH,MEAN_MOTION,ECCENTRICITY,INCLINATION,RA_OF_ASC_NODE,ARG_OF_PERICENTER,MEAN_ANOMALY,EPHEMERIS_TYPE,CLASSIFICATION_TYPE,NORAD_CAT_ID,ELEMENT_SET_NO,REV_AT_EPOCH,BSTAR,MEAN_MOTION_DOT,MEAN_MOTION_DDOT
SL-8 R/B,1985-006B,2026-06-18T05:13:49.325664,14.37835417,.00189015,74.0460,76.1674,323.1254,198.9229,0,U,15483,999,16847,.64688113E-4,.169E-5,0
SL-12 R/B(2),1985-042D,2026-06-17T15:57:19.399968,14.22006065,.00363552,71.1077,236.5073,327.0243,146.4490,0,U,15772,999,12860,.6262525E-4,.92E-6,0
SL-14 R/B,1985-069B,2026-06-18T07:31:28.143552,14.86516272,.00178743,82.5271,290.3065,215.2155,144.7882,0,U,15945,999,18778,.37595187E-4,.358E-5,0
SL-16 R/B,1985-097B,2026-06-18T07:41:56.736384,14.16610073,.0005397,71.0033,288.6911,108.8851,281.7562,0,U,16182,999,10148,.436725E-5,-.39E-6,0
SL-14 R/B,1986-006B,2026-06-18T01:27:45.718848,14.86946365,.00749191,82.5261,165.2910,300.5329,58.8507,0,U,16496,999,16412,.45500858E-4,.453E-5,0
COSMOS 1743,1986-034A,2026-06-17T21:54:49.507200,15.66997270,.00039534,82.5282,327.9597,267.7272,92.3535,0,U,16719,999,19590,.37484879E-3,.39958E-3,0
SL-14 R/B,1986-046B,2026-06-17T23:03:59.222304,14.85671500,.0021614,82.4817,345.4439,255.6896,104.1920,0,U,16792,999,14129,.34636736E-4,.325E-5,0
SL-14 R/B,1986-055B,2026-06-18T02:33:34.231680,14.85723665,.0018981,82.5203,32.2685,4.6621,155.9267,0,U,16882,999,13427,.320128E-4,.303E-5,0
AJISAI (EGS),1986-061A,2026-06-18T06:37:10.722720,12.44516817,.00112065,50.0067,144.0471,183.3444,318.0602,0,U,16908,999,48052,-.72972829E-4,-.108E-5,0
SL-14 R/B,1987-024B,2026-06-18T00:36:35.480160,14.86213667,.00167737,82.5279,358.4626,290.2326,69.7087,0,U,17567,999,10303,.30774433E-4,.295E-5,0
COSMOS 1833,1987-027A,2026-06-18T05:46:56.577504,14.13050844,.00228293,70.9181,114.6531,53.3657,306.9558,0,U,17589,999,2452,.20189604E-3,.33E-5,0
SL-16 R/B,1987-027B,2026-06-18T04:54:11.354112,14.17171535,.00065591,71.0032,64.6855,311.0637,48.9920,0,U,17590,999,2958,-.66904297E-4,-.183E-5,0
SL-14 R/B,1987-038B,2026-06-18T01:43:38.499168,14.85445608,.00189776,82.5007,202.2389,188.2076,171.8833,0,U,17912,999,9413,.26672232E-4,.255E-5,0
COSMOS 1844,1987-041A,2026-06-18T02:19:50.632320,14.14567697,.00328552,70.8967,182.3879,234.2301,125.5765,0,U,17973,999,1778,-.52254013E-4,-.149E-5,0
SL-14 R/B,1987-055B,2026-06-18T05:36:01.382112,14.85711698,.00216243,82.4995,254.2429,44.3929,315.9016,0,U,18153,999,8486,.33783362E-4,.319E-5,0
COSMOS 1867,1987-060A,2026-06-18T00:59:38.581728,14.31515823,.00165485,65.0115,25.6663,282.1657,77.7574,0,U,18187,999,3430,.17252184E-4,-.54E-6,0
SL-14 R/B,1988-001B,2026-06-17T23:11:03.340032,14.85610124,.00164346,82.5132,101.0410,266.7387,93.1949,0,U,18749,999,5691,.36306205E-4,.339E-5,0
COSMOS 1933,1988-020A,2026-06-18T00:37:11.457120,15.18718174,.00036631,82.5122,151.6047,182.2919,177.8299,0,U,18958,999,6545,.16002415E-3,.3351E-4,0
SL-3 R/B,1988-032B,2026-06-18T05:31:16.100544,15.20846388,.0023863,97.5257,152.2696,241.1077,118.7764,0,U,19046,999,6738,.14484357E-3,.3148E-4,0
SL-16 R/B,1988-039B,2026-06-18T02:34:33.235104,14.19629709,.00222078,71.0136,216.2126,191.8074,168.2534,0,U,19120,999,97263,.5240912E-4,.63E-6,0
COSMOS 1953,1988-050A,2026-06-18T03:08:02.433408,15.29989346,.0012208,82.5074,57.0833,123.4205,236.8205,0,U,19210,999,5313,.19000363E-3,.5559E-4,0
SL-8 R/B,1988-053B,2026-06-18T07:41:37.751712,14.38967810,.00191672,74.0481,286.9680,81.8913,308.5231,0,U,19257,999,99107,.54931917E-4,.144E-5,0
COSMOS 1975,1988-093A,2026-06-18T01:41:19.268160,15.29334125,.001142,82.5186,16.8133,168.5053,191.6450,0,U,19573,999,3474,.18621056E-3,.5339E-4,0
SL-14 R/B,1988-093B,2026-06-17T21:20:08.176128,14.85742351,.00220668,82.5312,307.9857,68.2892,47.0899,0,U,19574,999,1589,.39182986E-4,.366E-5,0
SL-16 R/B,1988-102B,2026-06-17T18:46:24.521664,14.16164154,.00157605,71.0000,300.8867,224.5291,135.4567,0,U,19650,999,94106,-.40504194E-4,-.128E-5,0
INTERCOSMOS 24,1989-080A,2026-06-18T01:10:34.058784,12.59663364,.11883643,82.6065,39.0844,59.9075,311.4485,0,U,20261,999,67943,.21145146E-3,.748E-5,0
SL-14 R/B,1989-080C,2026-06-17T21:10:28.883136,12.50571108,.1228723,82.5933,108.8612,315.8110,35.0939,0,U,20262,999,67267,.68446498E-4,.229E-5,0
DELTA 1 R/B,1989-089B,2026-06-18T02:46:56.585280,14.50731815,.00693246,97.0636,0.5256,164.0595,196.2807,0,U,20323,999,91029,.64939817E-4,.228E-5,0
ARIANE 40 R/B,1990-005H,2026-06-18T02:05:18.306816,14.39927878,.00088401,98.2959,226.6751,261.2133,98.8054,0,U,20443,999,90725,.75219175E-4,.194E-5,0
DELTA 2 R/B(1),1990-008B,2026-06-18T05:00:22.480128,15.68965035,.00647888,35.5989,228.8247,124.2858,236.4037,0,U,20453,999,94186,.50156628E-3,.68103E-3,0
