SL-8 R/B                
1 15483U 85006B   26169.21793201  .00000169  00000+0  64688-4 0  9990
2 15483  74.0460  76.1674 0018901 323.1254 198.9229 14.37835417168473
SL-12 R/B(2)            
1 15772U 85042D   26168.66480787  .00000092  00000+0  62625-4 0  9995
2 15772  71.1077 236.5073 0036355 327.0243 146.4490 14.22006065128607
SL-14 R/B               
1 15945U 85069B   26169.31352018  .00000358  00000+0  37595-4 0  9997
2 15945  82.5271 290.3065 0017874 215.2155 144.7882 14.86516272187781
SL-16 R/B               
1 16182U 85097B   26169.32079556 -.00000039  00000+0  43673-5 0  9998
2 16182  71.0033 288.6911 0005397 108.8851 281.7562 14.16610073101488
SL-14 R/B               
1 16496U 86006B   26169.06094582  .00000453  00000+0  45501-4 0  9994
2 16496  82.5261 165.2910 0074919 300.5329  58.8507 14.86946365164127
COSMOS 1743             
1 16719U 86034A   26168.91307300  .00039958  00000+0  37485-3 0  9994
2 16719  82.5282 327.9597 0003953 267.7272  92.3535 15.66997270195901
SL-14 R/B               
1 16792U 86046B   26168.96110211  .00000325  00000+0  34637-4 0  9999
2 16792  82.4817 345.4439 0021614 255.6896 104.1920 14.85671500141295
SL-14 R/B               
1 16882U 86055B   26169.10664620  .00000303  00000+0  32013-4 0  9996
2 16882  82.5203  32.2685 0018981   4.6621 155.9267 14.85723665134278
AJISAI (EGS)            
1 16908U 86061A   26169.27581855 -.00000108  00000+0 -72973-4 0  9992
2 16908  50.0067 144.0471 0011206 183.3444 318.0602 12.44516817480520
SL-14 R/B               
1 17567U 87024B   26169.02541065  .00000295  00000+0  30774-4 0  9994
2 17567  82.5279 358.4626 0016773 290.2326  69.7087 14.86213667103031
COSMOS 1833             
1 17589U 87027A   26169.24093261  .00000330  00000+0  20190-3 0  9995
2 17589  70.9181 114.6531 0022829  53.3657 306.9558 14.13050844 24520
SL-16 R/B               
1 17590U 87027B   26169.20429808 -.00000183  00000+0 -66904-4 0  9995
2 17590  71.0032  64.6855 0006559 311.0637  48.9920 14.17171535 29588
SL-14 R/B               
1 17912U 87038B   26169.07197337  .00000255  00000+0  26672-4 0  9995
2 17912  82.5007 202.2389 0018977 188.2076 171.8833 14.85445608 94137
COSMOS 1844             
1 17973U 87041A   26169.09711380 -.00000149  00000+0 -52254-4 0  9997
2 17973  70.8967 182.3879 0032855 234.2301 125.5765 14.14567697 17786
SL-14 R/B               
1 18153U 87055B   26169.23334933  .00000319  00000+0  33783-4 0  9997
2 18153  82.4995 254.2429 0021624  44.3929 315.9016 14.85711698 84862
COSMOS 1867             
1 18187U 87060A   26169.04141877 -.00000054  00000+0  17252-4 0  9992
2 18187  65.0115  25.6663 0016548 282.1657  77.7574 14.31515823 34308
SL-14 R/B               
1 18749U 88001B   26168.96601088  .00000339  00000+0  36306-4 0  9993
2 18749  82.5132 101.0410 0016434 266.7387  93.1949 14.85610124 56914
COSMOS 1933             
1 18958U 88020A   26169.02582705  .00003351  00000+0  16002-3 0  9995
2 18958  82.5122 151.6047 0003663 182.2919 177.8299 15.18718174 65453
SL-3 R/B                
1 19046U 88032B   26169.23004746  .00003148  00000+0  14484-3 0  9990
2 19046  97.5257 152.2696 0023863 241.1077 118.7764 15.20846388 67385
SL-16 R/B               
1 19120U 88039B   26169.10732911  .00000063  00000+0  52409-4 0  9991
2 19120  71.0136 216.2126 0022207 191.8074 168.2534 14.19629709972630
COSMOS 1953             
1 19210U 88050A   26169.13058372  .00005559  00000+0  19000-3 0  9993
2 19210  82.5074  57.0833 0012208 123.4205 236.8205 15.29989346 53131
SL-8 R/B                
1 19257U 88053B   26169.32057583  .00000144  00000+0  54932-4 0  9990
2 19257  74.0481 286.9680 0019167  81.8913 308.5231 14.38967810991078
COSMOS 1975             
1 19573U 88093A   26169.07036190  .00005339  00000+0  18621-3 0  9993
2 19573  82.5186  16.8133 0011420 168.5053 191.6450 15.29334125 34744
SL-14 R/B               
1 19574U 88093B   26168.88898352  .00000366  00000+0  39183-4 0  9990
2 19574  82.5312 307.9857 0022066  68.2892  47.0899 14.85742351 15899
SL-16 R/B               
1 19650U 88102B   26168.78222826 -.00000128  00000+0 -40504-4 0  9999
2 19650  71.0000 300.8867 0015760 224.5291 135.4567 14.16164154941061
INTERCOSMOS 24          
1 20261U 89080A   26169.04900531  .00000748  00000+0  21145-3 0  9996
2 20261  82.6065  39.0844 1188364  59.9075 311.4485 12.59663364679434
SL-14 R/B               
1 20262U 89080C   26168.88227874  .00000229  00000+0  68446-4 0  9990
2 20262  82.5933 108.8612 1228723 315.8110  35.0939 12.50571108672671
DELTA 1 R/B             
1 20323U 89089B   26169.11593270  .00000228  00000+0  64940-4 0  9994
2 20323  97.0636   0.5256 0069324 164.0595 196.2807 14.50731815910294
ARIANE 40 R/B           
1 20443U 90005H   26169.08701744  .00000194  00000+0  75219-4 0  9993
2 20443  98.2959 226.6751 0008840 261.2133  98.8054 14.39927878907259
DELTA 2 R/B(1)          
1 20453U 90008B   26169.20859352  .00068103  00000+0  50157-3 0  9997
2 20453  35.5989 228.8247 0064788 124.2858 236.4037 15.68965035941862
